[{"OBJECT_NAME":"KUIPER-00168","OBJECT_ID":"2025-217V","EPOCH":"2026-03-09T06:15:00.798624","MEAN_MOTION":14.79965894,"ECCENTRICITY":0.00010664,"INCLINATION":51.903,"RA_OF_ASC_NODE":29.9974,"ARG_OF_PERICENTER":89.3671,"MEAN_ANOMALY":270.7414,"EPHEMERIS_TYPE":0,"CLASSIFICATION_TYPE":"U","NORAD_CAT_ID":65781,"ELEMENT_SET_NO":999,"REV_AT_EPOCH":2502,"BSTAR":0.00079707781,"MEAN_MOTION_DOT":5.865e-5,"MEAN_MOTION_DDOT":0},{"OBJECT_NAME":"CZ-6A DEB","OBJECT_ID":"2022-151MF","EPOCH":"2026-03-09T16:42:09.866592","MEAN_MOTION":14.87246776,"ECCENTRICITY":0.0047609,"INCLINATION":98.5571,"RA_OF_ASC_NODE":128.9986,"ARG_OF_PERICENTER":197.25,"MEAN_ANOMALY":162.7098,"EPHEMERIS_TYPE":0,"CLASSIFICATION_TYPE":"U","NORAD_CAT_ID":54579,"ELEMENT_SET_NO":999,"REV_AT_EPOCH":9742,"BSTAR":0.0037329366,"MEAN_MOTION_DOT":0.00034427,"MEAN_MOTION_DDOT":0}]
